{
  "links" : {
    "next" : "https://api.nasa.gov/neo/rest/v1/feed?start_date=2015-07-23&end_date=2015-07-23&detailed=true&api_key=t0TVs3DtDT2H8Oy2Zy8m2eVrNsAVKAexjcZXUckd",
    "prev" : "https://api.nasa.gov/neo/rest/v1/feed?start_date=2015-07-21&end_date=2015-07-21&detailed=true&api_key=t0TVs3DtDT2H8Oy2Zy8m2eVrNsAVKAexjcZXUckd",
    "self" : "https://api.nasa.gov/neo/rest/v1/feed?start_date=2015-07-22&end_date=2015-07-22&detailed=true&api_key=t0TVs3DtDT2H8Oy2Zy8m2eVrNsAVKAexjcZXUckd"
  },
  "element_count" : 7,
  "near_earth_objects" : {
    "2015-07-22" : [ {
      "links" : {
        "self" : "https://api.nasa.gov/neo/rest/v1/neo/3741971?api_key=t0TVs3DtDT2H8Oy2Zy8m2eVrNsAVKAexjcZXUckd"
      },
      "neo_reference_id" : "3741971",
      "name" : "(2016 CA30)",
      "nasa_jpl_url" : "http://ssd.jpl.nasa.gov/sbdb.cgi?sstr=3741971",
      "absolute_magnitude_h" : 27.5,
      "estimated_diameter" : {
        "kilometers" : {
          "estimated_diameter_min" : 0.008405334,
          "estimated_diameter_max" : 0.0187948982
        },
        "meters" : {
          "estimated_diameter_min" : 8.4053340207,
          "estimated_diameter_max" : 18.7948982439
        },
        "miles" : {
          "estimated_diameter_min" : 0.0052228308,
          "estimated_diameter_max" : 0.0116786047
        },
        "feet" : {
          "estimated_diameter_min" : 27.5765560686,
          "estimated_diameter_max" : 61.6630539546
        }
      },
      "is_potentially_hazardous_asteroid" : false,
      "close_approach_data" : [ {
        "close_approach_date" : "2015-07-22",
        "epoch_date_close_approach" : 1437548400000,
        "relative_velocity" : {
          "kilometers_per_second" : "5.740790689",
          "kilometers_per_hour" : "20666.8464804607",
          "miles_per_hour" : "12841.5746922618"
        },
        "miss_distance" : {
          "astronomical" : "0.3280752027",
          "lunar" : "127.6212539673",
          "kilometers" : "49079352",
          "miles" : "30496496"
        },
        "orbiting_body" : "Earth"
      } ],
      "orbital_data" : {
        "orbit_id" : "5",
        "orbit_determination_date" : "2017-04-06 08:28:41",
        "orbit_uncertainty" : "7",
        "minimum_orbit_intersection" : ".0177474",
        "jupiter_tisserand_invariant" : "5.315",
        "epoch_osculation" : "2458000.5",
        "eccentricity" : ".2519976123887144",
        "semi_major_axis" : "1.184510104198228",
        "inclination" : "3.43502785693691",
        "ascending_node_longitude" : "137.9349308719847",
        "orbital_period" : "470.8760281200485",
        "perihelion_distance" : ".8860163860899668",
        "perihelion_argument" : "282.4758918779345",
        "aphelion_distance" : "1.483003822306488",
        "perihelion_time" : "2457830.845062727803",
        "mean_anomaly" : "129.7067036133334",
        "mean_motion" : ".7645324427265576",
        "equinox" : "J2000"
      }
    }, {
      "links" : {
        "self" : "https://api.nasa.gov/neo/rest/v1/neo/3753570?api_key=t0TVs3DtDT2H8Oy2Zy8m2eVrNsAVKAexjcZXUckd"
      },
      "neo_reference_id" : "3753570",
      "name" : "(2015 BC518)",
      "nasa_jpl_url" : "http://ssd.jpl.nasa.gov/sbdb.cgi?sstr=3753570",
      "absolute_magnitude_h" : 26.8,
      "estimated_diameter" : {
        "kilometers" : {
          "estimated_diameter_min" : 0.0116025908,
          "estimated_diameter_max" : 0.0259441818
        },
        "meters" : {
          "estimated_diameter_min" : 11.6025908209,
          "estimated_diameter_max" : 25.9441817907
        },
        "miles" : {
          "estimated_diameter_min" : 0.0072095135,
          "estimated_diameter_max" : 0.0161209622
        },
        "feet" : {
          "estimated_diameter_min" : 38.066244069,
          "estimated_diameter_max" : 85.1187093863
        }
      },
      "is_potentially_hazardous_asteroid" : false,
      "close_approach_data" : [ {
        "close_approach_date" : "2015-07-22",
        "epoch_date_close_approach" : 1437548400000,
        "relative_velocity" : {
          "kilometers_per_second" : "5.314304806",
          "kilometers_per_hour" : "19131.4973015862",
          "miles_per_hour" : "11887.5684205328"
        },
        "miss_distance" : {
          "astronomical" : "0.3078088997",
          "lunar" : "119.737663269",
          "kilometers" : "46047556",
          "miles" : "28612626"
        },
        "orbiting_body" : "Earth"
      } ],
      "orbital_data" : {
        "orbit_id" : "3",
        "orbit_determination_date" : "2017-04-06 08:35:51",
        "orbit_uncertainty" : "7",
        "minimum_orbit_intersection" : ".00937303",
        "jupiter_tisserand_invariant" : "5.255",
        "epoch_osculation" : "2458000.5",
        "eccentricity" : ".241795135503773",
        "semi_major_axis" : "1.203322878337896",
        "inclination" : "4.431690256828114",
        "ascending_node_longitude" : "128.109423242284",
        "orbital_period" : "482.1383615215478",
        "perihelion_distance" : ".9123652599153941",
        "perihelion_argument" : "59.08617889948815",
        "aphelion_distance" : "1.494280496760398",
        "perihelion_time" : "2458065.574974394714",
        "mean_anomaly" : "311.4102327220644",
        "mean_motion" : ".7466736288394484",
        "equinox" : "J2000"
      }
    }, {
      "links" : {
        "self" : "https://api.nasa.gov/neo/rest/v1/neo/2486692?api_key=t0TVs3DtDT2H8Oy2Zy8m2eVrNsAVKAexjcZXUckd"
      },
      "neo_reference_id" : "2486692",
      "name" : "486692 (2013 VC13)",
      "nasa_jpl_url" : "http://ssd.jpl.nasa.gov/sbdb.cgi?sstr=2486692",
      "absolute_magnitude_h" : 19.3,
      "estimated_diameter" : {
        "kilometers" : {
          "estimated_diameter_min" : 0.3669061375,
          "estimated_diameter_max" : 0.8204270649
        },
        "meters" : {
          "estimated_diameter_min" : 366.9061375314,
          "estimated_diameter_max" : 820.4270648822
        },
        "miles" : {
          "estimated_diameter_min" : 0.2279848336,
          "estimated_diameter_max" : 0.5097895857
        },
        "feet" : {
          "estimated_diameter_min" : 1203.7603322587,
          "estimated_diameter_max" : 2691.6899315481
        }
      },
      "is_potentially_hazardous_asteroid" : false,
      "close_approach_data" : [ {
        "close_approach_date" : "2015-07-22",
        "epoch_date_close_approach" : 1437548400000,
        "relative_velocity" : {
          "kilometers_per_second" : "14.9488999524",
          "kilometers_per_hour" : "53816.039828626",
          "miles_per_hour" : "33439.1943035148"
        },
        "miss_distance" : {
          "astronomical" : "0.3518690167",
          "lunar" : "136.8770446777",
          "kilometers" : "52638856",
          "miles" : "32708268"
        },
        "orbiting_body" : "Earth"
      } ],
      "orbital_data" : {
        "orbit_id" : "43",
        "orbit_determination_date" : "2017-09-21 06:22:01",
        "orbit_uncertainty" : "0",
        "minimum_orbit_intersection" : ".0575808",
        "jupiter_tisserand_invariant" : "4.284",
        "epoch_osculation" : "2458000.5",
        "eccentricity" : ".5880232086208848",
        "semi_major_axis" : "1.523663596619945",
        "inclination" : "7.195903256778172",
        "ascending_node_longitude" : "200.0377734130573",
        "orbital_period" : "686.9609715922667",
        "perihelion_distance" : ".6277140396766476",
        "perihelion_argument" : "61.28521722323475",
        "aphelion_distance" : "2.419613153563243",
        "perihelion_time" : "2457891.701435184303",
        "mean_anomaly" : "57.01558742539159",
        "mean_motion" : ".5240472383250202",
        "equinox" : "J2000"
      }
    } ]
  }
}